{"type": "FeatureCollection", "features": [ {"type": "Feature", "properties": {"norad_id": 37966, "name": "COSMOS 2251 DEB", "group": "cosmos-2251-debris", "lat": -73.71316282750114, "lon": 134.38459888432297, "alt_km": 541.9771238169742, "timestamp": "2025-12-10T16:57:12.036741+00:00", "meta": {"OBJECT_NAME": "COSMOS 2251 DEB", "OBJECT_ID": "1993-036BPR", "EPOCH": "2025-12-09T09:36:29.677536", "MEAN_MOTION": 15.12084932, "ECCENTRICITY": 0.0008975, "INCLINATION": 73.977, "RA_OF_ASC_NODE": 237.4896, "ARG_OF_PERICENTER": 112.4769, "MEAN_ANOMALY": 247.7375, "EPHEMERIS_TYPE": 0, "CLASSIFICATION_TYPE": "U", "NORAD_CAT_ID": 37966, "ELEMENT_SET_NO": 999, "REV_AT_EPOCH": 85292, "BSTAR": 0.003976161, "MEAN_MOTION_DOT": 0.00069139, "MEAN_MOTION_DDOT": 0}, "tle": {"line1": "1 37966U 93036BPR 25343.40034349  .00069139  00000+0  39762-2 0  9992", "line2": "2 37966  73.9770 237.4896 0008975 112.4769 247.7375 15.12084932852920"}}, "geometry": {"type": "Point", "coordinates": [134.38459888432297, -73.71316282750114]}}, {"type": "Feature", "properties": {"norad_id": 37967, "name": "COSMOS 2251 DEB", "group": "cosmos-2251-debris", "lat": 70.66518313897174, "lon": -93.62902111375699, "alt_km": 857.3439899575051, "timestamp": "2025-12-10T16:57:12.036752+00:00", "meta": {"OBJECT_NAME": "COSMOS 2251 DEB", "OBJECT_ID": "1993-036BPS", "EPOCH": "2025-12-09T17:08:35.965824", "MEAN_MOTION": 14.40464206, "ECCENTRICITY": 0.01508449, "INCLINATION": 74.0151, "RA_OF_ASC_NODE": 142.9877, "ARG_OF_PERICENTER": 282.4198, "MEAN_ANOMALY": 76.0112, "EPHEMERIS_TYPE": 0, "CLASSIFICATION_TYPE": "U", "NORAD_CAT_ID": 37967, "ELEMENT_SET_NO": 999, "REV_AT_EPOCH": 64692, "BSTAR": 0.0023151814, "MEAN_MOTION_DOT": 8.402e-05, "MEAN_MOTION_DDOT": 0}, "tle": {"line1": "1 37967U 93036BPS 25343.71430516  .00008402  00000+0  23152-2 0  9995", "line2": "2 37967  74.0151 142.9877 0150844 282.4198  76.0112 14.40464206646921"}}, "geometry": {"type": "Point", "coordinates": [-93.62902111375699, 70.66518313897174]}}, {"type": "Feature", "properties": {"norad_id": 37968, "name": "COSMOS 2251 DEB", "group": "cosmos-2251-debris", "lat": 6.063758318960738, "lon": 93.55922529347674, "alt_km": 611.0687504838261, "timestamp": "2025-12-10T16:57:12.036762+00:00", "meta": {"OBJECT_NAME": "COSMOS 2251 DEB", "OBJECT_ID": "1993-036BPT", "EPOCH": "2025-12-08T12:58:54.814944", "MEAN_MOTION": 15.00440305, "ECCENTRICITY": 0.0080589, "INCLINATION": 74.0015, "RA_OF_ASC_NODE": 279.7179, "ARG_OF_PERICENTER": 36.5177, "MEAN_ANOMALY": 324.1466, "EPHEMERIS_TYPE": 0, "CLASSIFICATION_TYPE": "U", "NORAD_CAT_ID": 37968, "ELEMENT_SET_NO": 999, "REV_AT_EPOCH": 60156, "BSTAR": 0.0013442, "MEAN_MOTION_DOT": 0.00018125, "MEAN_MOTION_DDOT": 0}, "tle": {"line1": "1 37968U 93036BPT 25342.54091221  .00018125  00000+0  13442-2 0  9996", "line2": "2 37968  74.0015 279.7179 0080589  36.5177 324.1466 15.00440305601569"}}, "geometry": {"type": "Point", "coordinates": [93.55922529347674, 6.063758318960738]}}, {"type": "Feature", "properties": {"norad_id": 37971, "name": "COSMOS 2251 DEB", "group": "cosmos-2251-debris", "lat": 64.54767701546984, "lon": -171.5314337228939, "alt_km": 710.6037394952091, "timestamp": "2025-12-10T16:57:12.036772+00:00", "meta": {"OBJECT_NAME": "COSMOS 2251 DEB", "OBJECT_ID": "1993-036BPW", "EPOCH": "2025-12-09T10:36:31.990752", "MEAN_MOTION": 14.48556148, "ECCENTRICITY": 0.00677277, "INCLINATION": 73.9935, "RA_OF_ASC_NODE": 47.9361, "ARG_OF_PERICENTER": 187.3712, "MEAN_ANOMALY": 172.6459, "EPHEMERIS_TYPE": 0, "CLASSIFICATION_TYPE": "U", "NORAD_CAT_ID": 37971, "ELEMENT_SET_NO": 999, "REV_AT_EPOCH": 60630, "BSTAR": 0.0030807309, "MEAN_MOTION_DOT": 0.00011908, "MEAN_MOTION_DDOT": 0}, "tle": {"line1": "1 37971U 93036BPW 25343.44203693  .00011908  00000+0  30807-2 0  9994", "line2": "2 37971  73.9935  47.9361 0067727 187.3712 172.6459 14.48556148606308"}}, "geometry": {"type": "Point", "coordinates": [-171.5314337228939, 64.54767701546984]}}, {"type": "Feature", "properties": {"norad_id": 37975, "name": "COSMOS 2251 DEB", "group": "cosmos-2251-debris", "lat": 21.037506194392172, "lon": 141.7242789017861, "alt_km": 705.4107402952914, "timestamp": "2025-12-10T16:57:12.036782+00:00", "meta": {"OBJECT_NAME": "COSMOS 2251 DEB", "OBJECT_ID": "1993-036BQA", "EPOCH": "2025-12-09T06:04:12.444384", "MEAN_MOTION": 14.75750431, "ECCENTRICITY": 0.0096458, "INCLINATION": 74.0034, "RA_OF_ASC_NODE": 330.9079, "ARG_OF_PERICENTER": 321.0366, "MEAN_ANOMALY": 38.3883, "EPHEMERIS_TYPE": 0, "CLASSIFICATION_TYPE": "U", "NORAD_CAT_ID": 37975, "ELEMENT_SET_NO": 999, "REV_AT_EPOCH": 69694, "BSTAR": 0.0053103, "MEAN_MOTION_DOT": 0.00039407, "MEAN_MOTION_DDOT": 0}, "tle": {"line1": "1 37975U 93036BQA 25343.25292181  .00039407  00000+0  53103-2 0  9995", "line2": "2 37975  74.0034 330.9079 0096458 321.0366  38.3883 14.75750431696949"}}, "geometry": {"type": "Point", "coordinates": [141.7242789017861, 21.037506194392172]}}, {"type": "Feature", "properties": {"norad_id": 37978, "name": "COSMOS 2251 DEB", "group": "cosmos-2251-debris", "lat": -44.50006001534316, "lon": -69.96100570873031, "alt_km": 326.5122709887846, "timestamp": "2025-12-10T16:57:12.036792+00:00", "meta": {"OBJECT_NAME": "COSMOS 2251 DEB", "OBJECT_ID": "1993-036BQD", "EPOCH": "2025-11-19T05:08:53.100672", "MEAN_MOTION": 15.61137081, "ECCENTRICITY": 0.00148985, "INCLINATION": 74.0238, "RA_OF_ASC_NODE": 142.2198, "ARG_OF_PERICENTER": 140.9849, "MEAN_ANOMALY": 219.2448, "EPHEMERIS_TYPE": 0, "CLASSIFICATION_TYPE": "U", "NORAD_CAT_ID": 37978, "ELEMENT_SET_NO": 999, "REV_AT_EPOCH": 8032, "BSTAR": 0.0043958825, "MEAN_MOTION_DOT": 0.0039117, "MEAN_MOTION_DDOT": 0}, "tle": {"line1": "1 37978U 93036BQD 25323.21450348  .00391170  00000+0  43959-2 0  9999", "line2": "2 37978  74.0238 142.2198 0014898 140.9849 219.2448 15.61137081 80328"}}, "geometry": {"type": "Point", "coordinates": [-69.96100570873031, -44.50006001534316]}}, {"type": "Feature", "properties": {"norad_id": 37985, "name": "COSMOS 2251 DEB", "group": "cosmos-2251-debris", "lat": 17.350087190944077, "lon": 84.33378131595754, "alt_km": 782.878688309529, "timestamp": "2025-12-10T16:57:12.036802+00:00", "meta": {"OBJECT_NAME": "COSMOS 2251 DEB", "OBJECT_ID": "1993-036BQL", "EPOCH": "2025-12-10T11:11:08.704608", "MEAN_MOTION": 14.3548178, "ECCENTRICITY": 0.0020728, "INCLINATION": 74.0254, "RA_OF_ASC_NODE": 269.9092, "ARG_OF_PERICENTER": 33.3426, "MEAN_ANOMALY": 326.9027, "EPHEMERIS_TYPE": 0, "CLASSIFICATION_TYPE": "U", "NORAD_CAT_ID": 37985, "ELEMENT_SET_NO": 999, "REV_AT_EPOCH": 64884, "BSTAR": 9.1487e-05, "MEAN_MOTION_DOT": 2.37e-06, "MEAN_MOTION_DDOT": 0}, "tle": {"line1": "1 37985U 93036BQL 25344.46607297  .00000237  00000+0  91487-4 0  9996", "line2": "2 37985  74.0254 269.9092 0020728  33.3426 326.9027 14.35481780648843"}}, "geometry": {"type": "Point", "coordinates": [84.33378131595754, 17.350087190944077]}}, {"type": "Feature", "properties": {"norad_id": 37988, "name": "COSMOS 2251 DEB", "group": "cosmos-2251-debris", "lat": -71.924446170138, "lon": -33.14348646718294, "alt_km": 709.1244413249942, "timestamp": "2025-12-10T16:57:12.036813+00:00", "meta": {"OBJECT_NAME": "COSMOS 2251 DEB", "OBJECT_ID": "1993-036BQP", "EPOCH": "2025-12-10T09:09:04.842720", "MEAN_MOTION": 14.6882615, "ECCENTRICITY": 0.0063132, "INCLINATION": 74.0642, "RA_OF_ASC_NODE": 28.581, "ARG_OF_PERICENTER": 66.7432, "MEAN_ANOMALY": 294.0368, "EPHEMERIS_TYPE": 0, "CLASSIFICATION_TYPE": "U", "NORAD_CAT_ID": 37988, "ELEMENT_SET_NO": 999, "REV_AT_EPOCH": 23361, "BSTAR": 0.0011679, "MEAN_MOTION_DOT": 7.005e-05, "MEAN_MOTION_DDOT": 0}, "tle": {"line1": "1 37988U 93036BQP 25344.38130605  .00007005  00000+0  11679-2 0  9997", "line2": "2 37988  74.0642  28.5810 0063132  66.7432 294.0368 14.68826150233615"}}, "geometry": {"type": "Point", "coordinates": [-33.14348646718294, -71.924446170138]}}, {"type": "Feature", "properties": {"norad_id": 37993, "name": "COSMOS 2251 DEB", "group": "cosmos-2251-debris", "lat": 54.63526990728458, "lon": -33.012681003794604, "alt_km": 699.531951292839, "timestamp": "2025-12-10T16:57:12.036823+00:00", "meta": {"OBJECT_NAME": "COSMOS 2251 DEB", "OBJECT_ID": "1993-036BQU", "EPOCH": "2025-12-09T05:51:24.736320", "MEAN_MOTION": 14.59845478, "ECCENTRICITY": 0.0022054, "INCLINATION": 74.0217, "RA_OF_ASC_NODE": 173.5884, "ARG_OF_PERICENTER": 262.4751, "MEAN_ANOMALY": 97.3909, "EPHEMERIS_TYPE": 0, "CLASSIFICATION_TYPE": "U", "NORAD_CAT_ID": 37993, "ELEMENT_SET_NO": 999, "REV_AT_EPOCH": 65266, "BSTAR": 0.0017274, "MEAN_MOTION_DOT": 8.27e-05, "MEAN_MOTION_DDOT": 0}, "tle": {"line1": "1 37993U 93036BQU 25343.24403630  .00008270  00000+0  17274-2 0  9990", "line2": "2 37993  74.0217 173.5884 0022054 262.4751  97.3909 14.59845478652667"}}, "geometry": {"type": "Point", "coordinates": [-33.012681003794604, 54.63526990728458]}}, {"type": "Feature", "properties": {"norad_id": 37994, "name": "COSMOS 2251 DEB", "group": "cosmos-2251-debris", "lat": -2.204039300318753, "lon": -81.18762126406821, "alt_km": 746.3794765986004, "timestamp": "2025-12-10T16:57:12.036832+00:00", "meta": {"OBJECT_NAME": "COSMOS 2251 DEB", "OBJECT_ID": "1993-036BQV", "EPOCH": "2025-12-10T05:17:21.987168", "MEAN_MOTION": 14.39614389, "ECCENTRICITY": 0.0022819, "INCLINATION": 74.0369, "RA_OF_ASC_NODE": 280.3406, "ARG_OF_PERICENTER": 0.2298, "MEAN_ANOMALY": 359.8863, "EPHEMERIS_TYPE": 0, "CLASSIFICATION_TYPE": "U", "NORAD_CAT_ID": 37994, "ELEMENT_SET_NO": 999, "REV_AT_EPOCH": 77028, "BSTAR": 0.00062103, "MEAN_MOTION_DOT": 1.921e-05, "MEAN_MOTION_DDOT": 0}, "tle": {"line1": "1 37994U 93036BQV 25344.22039337  .00001921  00000+0  62103-3 0  9997", "line2": "2 37994  74.0369 280.3406 0022819   0.2298 359.8863 14.39614389770283"}}, "geometry": {"type": "Point", "coordinates": [-81.18762126406821, -2.204039300318753]}}]}